#dP2021  9  2  0  0  0.00000000      97 __u+U IGS14 FIT  IAC
## 2173 345600.00000000   900.00000000 59459 0.0000000000000
+  121   C01C02C03C04C05C06C07C09C10C11C12C13C14C16C19C20C21
+        C22C23C24C25C26C27C28C29C30C32C33C34C35C36C37C39C40
+        C41C42C43C44C45C46C59C60E01E02E03E04E05E07E08E09E11
+        E12E13E14E15E18E19E21E24E25E26E27E30E31E33E36G01G02
+        G03G04G05G06G07G08G09G10G12G13G14G15G16G17G18G19G20
+        G21G22G23G24G25G26G27G28G29G30G31G32J02J03J07R01R02
+        R03R04R05R07R08R09R11R12R13R14R15R16R17R18R19R20R21
+        R22R24  0  0  0  0  0  0  0  0  0  0  0  0  0  0  0
++        13 12 12 13 12  9  9  9  9  8  8  8  8  9  7  7  7
++         7  7  7  7  7  7  6  7  7  7  7  7  7  7  7  7  7
++         7  7  7  7  7  7 14 14  4  4  4  4  4  4  4  4  4
++         4  4  5  4  4  5  4  4  4  4  4  4  4  4  5  3  4
++         3  4  4  3  3  3  3  3  3  4  3  4  3  3  3  3  4
++         3  3  3  3  3  3  0  4  3  3  3  3  8  8 16  6  5
++         6  6  6  5  5  6  7  5  7  6  6  7  5  5  7  7  5
++         7  5  0  0  0  0  0  0  0  0  0  0  0  0  0  0  0
%c M  cc GPS ccc cccc cccc cccc cccc ccccc ccccc ccccc ccccc
%c cc cc ccc ccc cccc cccc cccc cccc ccccc ccccc ccccc ccccc
%f  1.2500000  1.025000000  0.00000000000  0.000000000000000
%f  0.0000000  0.000000000  0.00000000000  0.000000000000000
%i    0    0    0    0      0      0      0      0         0
%i    0    0    0    0      0      0      0      0         0
/* INFORMATION & ANALYSIS CENTER (IAC)            FINAL DATA
/* S/V CLOCKS ARE ALIGNED TO GNSS TIME                      
/* G:C1WC2W R:C1PC2P E:C1XC5X C:C2IC6I J:C1CC2S             
/* PCV:IGS14_2163 OL/AL:FES2004  NONE     YN ORB:CoN CLK:CoN
*  2021 09 02 19  0  0.00000000
PC01 -34312.005405  24554.050819     61.355585   -111.917657
PC02   4395.995635  41887.231436   -948.466724    369.087909
PC03 -14713.132127  39488.912213  -1080.036559   -243.622249
PC04 -39624.463530  14460.711823    130.151722    121.107428
PC05  21909.378846  35999.437238  -1226.892538     83.274166
PC06  -7756.218450  40355.663635  -9000.719584    842.639496
PC07  -5399.902983  26681.783956  32204.744678    -58.420909
PC09  -1925.130566  41844.232032   1658.165081    -75.365805
PC10   2073.051715  28971.302397  30938.515228     -3.272367
PC11  10576.509070  17615.197257 -18847.275416    552.552059
PC12      9.484029  27642.729099  -3913.138910    766.848698
PC13 -10587.146006  28272.263576 -29465.612356    395.496531
PC14  21719.243354  17317.531163  -2963.804236    673.923249
PC16  -8556.083909  39599.054621 -11088.672122   -828.685802
PC19 -24629.492266 -11354.956416  -6513.861545    967.686404
PC20 -16509.898011 -19941.578151  10384.583320   -808.273730
PC21  -1956.966074  17066.299390 -21987.098679   -934.601451
PC22 -18731.567045   4132.636820 -20263.295637   -950.551445
PC23  25219.785111 -11945.403323   -151.323404   -961.019861
PC24   6451.090813  14938.125827  22673.300004   -964.544898
PC25  23088.658501    951.992978  15630.458398   -860.900654
PC26 -11776.612231  19132.119467  16571.365760    855.616165
PC27   6083.088318 -26758.435027  -5121.373754    590.946464
PC28  14776.642620 -13448.343260 -19475.634181    -31.181838
PC29 -15091.571041  -7153.861367  22347.135396    441.769279
PC30  -6733.510639 -24429.582510  11697.559200    479.389500
PC32   1928.629127 -17054.250947  22009.903438   -939.148175
PC33  24711.125484  11275.990315   6440.980346   -969.811381
PC34   7211.366574  23938.392052 -12391.898950   -591.009168
PC35 -14468.866733  13526.582724  19639.752696   -110.655445
PC36 -22861.706677  -1765.286185 -15872.542602   -752.618534
PC37  13110.512072 -18772.900443 -15914.006829   -862.974017
PC39 -10724.842209  36540.731289 -17920.980263     33.024744
PC40  -9224.718848  20724.642824  35542.705484    195.778303
PC41  18998.721507  -3934.643928  20099.519419   -945.574779
PC42  15919.785502  20081.178119 -11032.276076   -944.965954
PC43  15050.340210   7860.875585 -22151.317224   -896.363227
PC44  -5295.160135  26873.362560   5260.840528    372.281462
PC45 -25148.355282  12115.474303    357.549674    537.151980
PC46  -7694.468250 -14204.936743 -22740.976996    103.439722
PC59 -32312.799144  27119.483676   -136.497965     -1.059739
PC60   7315.715201  41538.918766    218.629238 999999.999999
PE01 -28894.421731  -4493.976985  -4584.505444  -1184.846142
PE02  28920.914747   4416.789935   4469.777748    244.160389
PE03  20384.034569  10597.920032  18669.384560   -470.410041
PE04 -13905.895971  10128.550732 -24084.938061   -848.272253
PE05  14989.825470  25432.626058   2198.182021   -252.414126
PE07   -920.849601 -25277.462983  15367.513413   -581.175523
PE08  13522.636979 -10478.609481  24153.710573   5944.121396
PE09   1287.769072  25329.403028 -15276.349893   5545.093875
PE11 -10079.845058  26507.628168  -8485.349007   5487.121868
PE12 -20170.257058  18651.011048  11006.624215   5029.384374
PE13  10379.987692 -26529.069698   8031.465193    421.027240
PE14 -15494.941461  -6525.518207  16254.928386  -1557.072868
PE15  20083.515094 -18733.470353 -11032.946799    794.530922
PE18  21525.566889   7232.077903 -23349.103321  -1708.457540
PE19 -20280.115608 -12973.148231 -17219.105762    367.747321
PE21 -16877.178322 -14152.098478 -19766.717869   -685.620034
PE24  -6671.837412  15995.123464  23995.071367  -1096.413190
PE25  16656.031212  14240.604322  19912.584369   -545.298861
PE26  -6216.989308 -18057.359654  22609.606811   1389.564016
PE27   5443.286024 -16141.997828 -24195.075079   -111.647041
PE30  25153.888377  -7897.520752 -13447.501131   2651.699978
PE31 -24389.129475   8643.232690  14388.855219   -485.132705
PE33 -17934.916710    -70.166510  23547.246279   -465.471774
PE36   5398.560366  18693.140822 -22309.201392   -256.960313
PG01 -12567.718342  21736.435176  -8389.699780    579.212756
PG02  20010.352903 -11339.494969 -12693.913398   -630.071310
PG03  -7762.854765  13466.664174 -21627.682031   -275.719384
PG04  -2321.545393  23377.876999 -12323.613490   -204.272619
PG05  20222.949593  -7460.853548  15458.935203    -53.132862
PG06  16691.735979   1925.733415 -20525.328147     67.036195
PG07   1110.048114  18750.814650  18952.912661    237.584372
PG08  -9293.754373  14983.633049  19753.846480    -34.984306
PG09   7215.352630  25480.224821  -1933.053239   -360.246709
PG10 -21686.643342 -11825.941058  10246.673609   -195.175104
PG12   9141.815261 -12726.356479 -21678.021897    -91.751389
PG13  13741.199252  -6976.897417  21473.705117    179.964130
PG14  21294.941296  12647.517333   9660.711781      9.941692
PG15   7894.507143 -16453.744137  18799.526719   -123.946284
PG16 -23819.569838   1049.211385  11926.163752   -384.024463
PG17  12643.352291  20488.901037 -10774.320689    498.825900
PG18  -2214.730120 -17479.238384  19834.196335    326.641025
PG19  15065.289990  12677.473983 -18174.674281     47.771454
PG20  25860.352433  -1985.579066   5001.349019    519.330855
PG21 -16923.075088  20067.443514   1467.155313    140.628211
PG22 -15303.246608  11666.185134 -18048.603018   -522.921214
PG23 -11712.089505 -15174.899380  18389.847850     62.611860
PG24  14243.283407 -21967.167845  -3155.206216    225.192456
PG25  -3005.107860 -15936.003021 -21340.992865    201.693108
PG26 -26348.639821  -4400.037980     48.006908    129.767689
PG27      0.000000      0.000000      0.000000 999999.999999
PG28  23938.981084  10638.082437   4229.700904    508.480591
PG29  -3376.253350 -25976.566504  -4214.373090   -405.732042
PG30  11737.881069  10548.385021  21435.573571   -468.819141
PG31 -18521.573420   -341.101081 -19292.211802   -137.652454
PG32 -15441.473903 -17069.256462 -13291.228033      2.888192
PJ02 -30872.313102  23289.244680  21710.271652     -2.083127
PJ03 -28655.643532  26538.657466  20988.885862     -1.501727
PJ07 -25349.858894  33703.941860    -65.168648      0.087932
PR01 -18289.096066  -6551.028854 -16526.958751     84.771419
PR02  -5066.620395  10169.770416 -22795.252695    491.898349
PR03   9692.199828  19046.584933 -13846.026498     42.267306
PR04  18733.326161  17091.614105   2741.102734    102.892685
PR05  17331.289782   5710.890861  17818.547098     78.250028
PR07 -10181.589940 -19242.952108  13365.360853    -41.410273
PR08 -18764.648814 -17081.293766  -2675.994715    -60.736121
PR09  17640.984227 -12127.410191 -13906.531568     11.217840
PR11 -16617.479362  -4516.592647 -18795.677628     47.711424
PR12 -24783.732332   5202.924354  -3095.091575    258.768246
PR13 -18256.518777  11800.662856  13334.464642    -60.017897
PR14   -283.520787  11502.073029  22783.121785     68.363085
PR15  17084.340402   4540.594247  18418.492418    101.720327
PR16  24563.279143  -6329.312114   1938.209743    -20.709339
PR17  -2676.186370  23997.871179  -8293.851111    455.155765
PR18   5960.364354  13382.014142 -20859.343219     89.091875
PR19  11410.602971  -2938.074149 -22625.379330   -157.822553
PR20  11028.879229 -20794.769959  -9865.673807    -55.212755
PR21   2099.562516 -23538.851572   9550.745139   -236.229636
PR22  -6260.018798 -12596.109959  21283.654297   -131.135268
PR24 -10641.273749  21324.908723   9139.034579     57.026448
EOF
